NORAD_CAT_ID,OBJECT_NAME,OBJECT_TYPE,EPOCH,MEAN_MOTION,ECCENTRICITY,INCLINATION,RA_OF_ASC_NODE,ARG_OF_PERICENTER,MEAN_ANOMALY,BSTAR,MEAN_MOTION_DOT,MEAN_MOTION_DDOT,TLE_LINE0,TLE_LINE1,TLE_LINE2,SEMIMAJOR_AXIS,PERIOD,APOGEE,PERIGEE,DECAYED
51794.0,STARLINK-3573,PAYLOAD,2024-03-06 03:37:24,15.08839243,0.0001761,53.2197,42.1019,116.4995,243.6178,-2.8419e-05,-7.4e-06,0.0,0 STARLINK-3573,1 51794U 22017AC  24066.15097965 -.00000740  00000-0 -28419-4 0  9999,2 51794  53.2197  42.1019 0001761 116.4995 243.6178 15.08839243113180,6917.883,95.438,540.966,538.529,0.0
51794.0,STARLINK-3573,PAYLOAD,2024-03-06 08:23:34,15.08839591,0.0001468,53.2186,41.2129,98.3326,261.7832,-9.1834e-05,-1.749e-05,0.0,0 STARLINK-3573,1 51794U 22017AC  24066.34970297 -.00001749  00000-0 -91834-4 0  9999,2 51794  53.2186  41.2129 0001468  98.3326 261.7832 15.08839591113218,6917.882,95.438,540.762,538.731,0.0
51794.0,STARLINK-3573,PAYLOAD,2024-03-07 14:35:53,15.08846392,0.0001078,53.2183,35.5625,85.8082,274.3033,0.00014828,2.073e-05,0.0,0 STARLINK-3573,1 51794U 22017AC  24067.60825419  .00002073  00000-0  14828-3 0  9990,2 51794  53.2183  35.5625 0001078  85.8082 274.3033 15.08846392113400,6917.861,95.437,540.472,538.98,0.0
51794.0,STARLINK-3573,PAYLOAD,2024-03-08 01:43:36,15.08836251,0.0001682,53.2198,33.4818,89.0619,271.0566,9.0426e-05,1.151e-05,0.0,0 STARLINK-3573,1 51794U 22017AC  24068.07194487  .00001151  00000-0  90426-4 0  9991,2 51794  53.2198  33.4818 0001682  89.0619 271.0566 15.08836251113475,6917.892,95.438,540.92,538.593,0.0
51794.0,STARLINK-3573,PAYLOAD,2024-03-08 14:26:40,15.08842359,0.0001292,53.2191,31.104,89.5622,270.5519,8.8191e-05,1.116e-05,0.0,0 STARLINK-3573,1 51794U 22017AC  24068.60186063  .00001116  00000-0  88191-4 0  9998,2 51794  53.2191  31.1040 0001292  89.5622 270.5519 15.08842359113553,6917.873,95.437,540.632,538.844,0.0
51794.0,STARLINK-3573,PAYLOAD,2024-03-09 03:09:46,15.088435,0.0001469,53.2192,28.7249,85.2976,274.8184,-2.708e-05,-7.19e-06,0.0,0 STARLINK-3573,1 51794U 22017AC  24069.13178307 -.00000719  00000-0 -27080-4 0  9999,2 51794  53.2192  28.7249 0001469  85.2976 274.8184 15.08843500113631,6917.87,95.437,540.751,538.718,0.0
51794.0,STARLINK-3573,PAYLOAD,2024-03-09 14:17:27,15.08846101,0.0001375,53.2195,26.6421,89.791,270.324,9.878e-06,-1.31e-06,0.0,0 STARLINK-3573,1 51794U 22017AC  24069.59545738 -.00000131  00000-0  98780-5 0  9998,2 51794  53.2195  26.6421 0001375  89.7910 270.3240 15.08846101113708,6917.862,95.437,540.678,538.776,0.0
51794.0,STARLINK-3573,PAYLOAD,2024-03-10 06:11:17,15.08859014,0.0001445,53.2194,23.6699,89.9236,270.1921,0.00015267,2.144e-05,0.0,0 STARLINK-3573,1 51794U 22017AC  24070.25784405  .00002144  00000-0  15267-3 0  9991,2 51794  53.2194  23.6699 0001445  89.9236 270.1921 15.08859014113804,6917.822,95.436,540.687,538.688,0.0
51794.0,STARLINK-3573,PAYLOAD,2024-03-10 14:08:14,15.08839236,0.000143,53.2191,22.1814,84.1368,275.9787,-4.5379e-06,-3.6e-06,0.0,0 STARLINK-3573,1 51794U 22017AC  24070.58905923 -.00000360  00000-0 -45379-5 0  9996,2 51794  53.2191  22.1814 0001430  84.1368 275.9787 15.08839236113853,6917.883,95.438,540.737,538.758,0.0
51794.0,STARLINK-3573,PAYLOAD,2024-03-10 20:29:47,15.08835319,0.0001801,53.2191,20.9913,85.4425,274.6773,2.3986e-05,9.4e-07,0.0,0 STARLINK-3573,1 51794U 22017AC  24070.85402242  .00000094  00000-0  23986-4 0  9993,2 51794  53.2191  20.9913 0001801  85.4425 274.6773 15.08835319113892,6917.895,95.438,541.006,538.514,0.0
51794.0,STARLINK-3573,PAYLOAD,2024-03-11 13:59:01,15.08840358,0.0001459,53.2192,17.7214,94.9908,265.125,-4.0273e-06,-3.52e-06,0.0,0 STARLINK-3573,1 51794U 22017AC  24071.58265883 -.00000352  00000-0 -40273-5 0  9990,2 51794  53.2192  17.7214 0001459  94.9908 265.1250 15.08840358114009,6917.879,95.438,540.754,538.735,0.0
51794.0,STARLINK-3573,PAYLOAD,2024-03-12 01:06:43,15.0883687,0.0001421,53.2194,15.6399,97.8608,262.2546,-2.4029e-05,-6.7e-06,0.0,0 STARLINK-3573,1 51794U 22017AC  24072.04634176 -.00000670  00000-0 -24029-4 0  9990,2 51794  53.2194  15.6399 0001421  97.8608 262.2546 15.08836870114077,6917.89,95.438,540.738,538.772,0.0
51794.0,STARLINK-3573,PAYLOAD,2024-03-12 05:52:52,15.08846099,0.0001556,53.2196,14.7472,101.0158,259.1009,-6.7673e-05,-1.365e-05,0.0,0 STARLINK-3573,1 51794U 22017AC  24072.24505744 -.00001365  00000-0 -67673-4 0  9994,2 51794  53.2196  14.7472 0001556 101.0158 259.1009 15.08846099114105,6917.862,95.437,540.803,538.65,0.0
51794.0,STARLINK-3573,PAYLOAD,2024-03-12 20:11:21,15.08843257,0.0001458,53.2194,12.0703,97.6185,262.4973,-0.00010864,-2.017e-05,0.0,0 STARLINK-3573,1 51794U 22017AC  24072.84122126 -.00002017  00000-0 -10864-3 0  9993,2 51794  53.2194  12.0703 0001458  97.6185 262.4973 15.08843257114191,6917.87,95.437,540.744,538.727,0.0
51794.0,STARLINK-3573,PAYLOAD,2024-03-13 02:32:54,15.08834131,0.0001254,53.2185,10.879,97.6052,262.5083,0.00014877,2.08e-05,0.0,0 STARLINK-3573,1 51794U 22017AC  24073.10618097  .00002080  00000-0  14877-3 0  9996,2 51794  53.2185  10.8790 0001254  97.6052 262.5083 15.08834131114239,6917.898,95.438,540.631,538.896,0.0
51794.0,STARLINK-3573,PAYLOAD,2024-03-13 05:43:40,15.08842561,0.0001433,53.2189,10.2853,93.579,266.5367,3.1847e-05,2.19e-06,0.0,0 STARLINK-3573,1 51794U 22017AC  24073.23865888  .00000219  00000-0  31847-4 0  9991,2 51794  53.2189  10.2853 0001433  93.5790 266.5367 15.08842561114257,6917.873,95.437,540.729,538.746,0.0
51794.0,STARLINK-3573,PAYLOAD,2024-03-14 05:34:27,15.08838032,0.0001414,53.2183,5.8234,98.9667,261.1485,4.5638e-05,4.38e-06,0.0,0 STARLINK-3573,1 51794U 22017AC  24074.23226439  .00000438  00000-0  45638-4 0  9991,2 51794  53.2183   5.8234 0001414  98.9667 261.1485 15.08838032114402,6917.886,95.438,540.73,538.773,0.0
51794.0,STARLINK-3573,PAYLOAD,2024-03-14 19:52:56,15.08837494,0.0001375,53.2181,3.1469,91.3282,268.7867,1.0969e-05,-1.13e-06,0.0,0 STARLINK-3573,1 51794U 22017AC  24074.82842768 -.00000113  00000-0  10969-4 0  9995,2 51794  53.2181   3.1469 0001375  91.3282 268.7867 15.08837494114494,6917.888,95.438,540.704,538.802,0.0
51794.0,STARLINK-3573,PAYLOAD,2024-03-15 19:43:43,15.08829172,0.0001071,53.2189,358.6851,92.2556,267.8558,-1.638e-05,-5.48e-06,0.0,0 STARLINK-3573,1 51794U 22017AC  24075.82203649 -.00000548  00000-0 -16380-4 0  9991,2 51794  53.2189 358.6851 0001071  92.2556 267.8558 15.08829172114640,6917.913,95.438,540.519,539.038,0.0
51794.0,STARLINK-3573,PAYLOAD,2024-03-15 22:54:30,15.08830464,0.0001371,53.2185,358.0952,95.3848,264.73,-7.9524e-05,-1.553e-05,0.0,0 STARLINK-3573,1 51794U 22017AC  24075.95451947 -.00001553  00000-0 -79524-4 0  9997,2 51794  53.2185 358.0952 0001371  95.3848 264.7300 15.08830464114662,6917.91,95.438,540.723,538.826,0.0
51794.0,STARLINK-3573,PAYLOAD,2024-03-16 03:40:40,15.08828463,0.0001261,53.2194,357.2027,95.3035,264.8101,-8.4624e-05,-1.634e-05,0.0,0 STARLINK-3573,1 51794U 22017AC  24076.15324240 -.00001634  00000-0 -84624-4 0  9992,2 51794  53.2194 357.2027 0001261  95.3035 264.8101 15.08828463114691,6917.916,95.438,540.653,538.908,0.0
51794.0,STARLINK-3573,PAYLOAD,2024-03-16 22:45:16,15.08843857,9.24e-05,53.2171,353.6353,107.0356,253.0738,8.5497e-05,1.073e-05,0.0,0 STARLINK-3573,1 51794U 22017AC  24076.94810763  .00001073  00000-0  85497-4 0  9993,2 51794  53.2171 353.6353 0000924 107.0356 253.0738 15.08843857114814,6917.869,95.437,540.373,539.094,0.0
51794.0,STARLINK-3573,PAYLOAD,2024-03-17 03:31:25,15.08851732,0.0001304,53.2181,352.7424,117.5946,242.5178,0.00013172,1.81e-05,0.0,0 STARLINK-3573,1 51794U 22017AC  24077.14682091  .00001810  00000-0  13172-3 0  9996,2 51794  53.2181 352.7424 0001304 117.5946 242.5178 15.08851732114843,6917.845,95.437,540.612,538.807,0.0
51794.0,STARLINK-3573,PAYLOAD,2024-03-17 17:49:54,15.0883791,0.0001528,53.2179,350.0697,82.0884,278.0282,0.00015268,2.143e-05,0.0,0 STARLINK-3573,1 51794U 22017AC  24077.74299041  .00002143  00000-0  15268-3 0  9999,2 51794  53.2179 350.0697 0001528  82.0884 278.0282 15.08837910114930,6917.887,95.438,540.809,538.695,0.0
51794.0,STARLINK-3573,PAYLOAD,2024-03-17 22:36:03,15.08838391,0.0001462,53.2177,349.1752,88.3511,271.7649,0.00015264,2.142e-05,0.0,0 STARLINK-3573,1 51794U 22017AC  24077.94171057  .00002142  00000-0  15264-3 0  9992,2 51794  53.2177 349.1752 0001462  88.3511 271.7649 15.08838391114966,6917.885,95.438,540.762,538.739,0.0
51794.0,STARLINK-3573,PAYLOAD,2024-03-18 03:22:12,15.08843695,0.0001192,53.2181,348.2832,90.4298,269.683,0.00019011,2.739e-05,0.0,0 STARLINK-3573,1 51794U 22017AC  24078.14042562  .00002739  00000-0  19011-3 0  9999,2 51794  53.2181 348.2832 0001192  90.4298 269.6830 15.08843695114990,6917.869,95.437,540.559,538.909,0.0
51794.0,STARLINK-3573,PAYLOAD,2024-03-18 22:26:50,15.08843504,0.0001192,53.218,344.7138,72.8274,287.2848,3.601e-05,2.85e-06,0.0,0 STARLINK-3573,1 51794U 22017AC  24078.93530771  .00000285  00000-0  36010-4 0  9993,2 51794  53.2180 344.7138 0001192  72.8274 287.2848 15.08843504115116,6917.87,95.437,540.559,538.91,0.0
51794.0,STARLINK-3573,PAYLOAD,2024-03-19 03:12:59,15.08857447,0.0001176,53.2207,343.8147,92.3163,267.7964,-7.6097e-06,-4.09e-06,0.0,0 STARLINK-3573,1 51794U 22017AC  24079.13401853 -.00000409  00000-0 -76097-5 0  9994,2 51794  53.2207 343.8147 0001176  92.3163 267.7964 15.08857447115148,6917.827,95.436,540.506,538.879,0.0
51794.0,STARLINK-3573,PAYLOAD,2024-03-19 22:17:36,15.0885705,0.0001549,53.2196,340.2474,115.5281,244.5871,2.2725e-06,-2.52e-06,0.0,0 STARLINK-3573,1 51794U 22017AC  24079.92889381 -.00000252  00000-0  22725-5 0  9991,2 51794  53.2196 340.2474 0001549 115.5281 244.5871 15.08857050115265,6917.828,95.436,540.765,538.622,0.0
51794.0,STARLINK-3573,PAYLOAD,2024-03-20 03:03:39,15.08932251,9.77e-05,53.2181,339.3606,95.0908,265.0196,0.0007015,0.00010922,0.0,0 STARLINK-3573,1 51794U 22017AC  24080.12754192  .00010922  00000-0  70150-3 0  9993,2 51794  53.2181 339.3606 0000977  95.0908 265.0196 15.08932251115295,6917.598,95.432,540.139,538.788,0.0
